{"type": "FeatureCollection", "features": [ {"type": "Feature", "properties": {"norad_id": 39122, "name": "EUTELSAT 117 WEST A", "group": "eutelsat", "lat": 0.031335214196525456, "lon": 79.75273085183728, "alt_km": 35798.08780330337, "timestamp": "2025-12-14T07:33:19.149731+00:00", "meta": {"OBJECT_NAME": "EUTELSAT 117 WEST A", "OBJECT_ID": "2013-012A", "EPOCH": "2025-12-13T12:57:15.289056", "MEAN_MOTION": 1.00271918, "ECCENTRICITY": 0.00028701, "INCLINATION": 0.017, "RA_OF_ASC_NODE": 20.0014, "ARG_OF_PERICENTER": 246.1172, "MEAN_ANOMALY": 253.859, "EPHEMERIS_TYPE": 0, "CLASSIFICATION_TYPE": "U", "NORAD_CAT_ID": 39122, "ELEMENT_SET_NO": 999, "REV_AT_EPOCH": 4657, "BSTAR": 0, "MEAN_MOTION_DOT": 2e-08, "MEAN_MOTION_DDOT": 0}, "tle": {"line1": "1 39122U 13012A   25347.53976029  .00000002  00000+0  00000+0 0  9996", "line2": "2 39122   0.0170  20.0014 0002870 246.1172 253.8590  1.00271918 46577"}}, "geometry": {"type": "Point", "coordinates": [79.75273085183728, 0.031335214196525456]}}, {"type": "Feature", "properties": {"norad_id": 39163, "name": "EUTELSAT 7B", "group": "eutelsat", "lat": -0.014838439324708292, "lon": -156.48757641526254, "alt_km": 35793.77806941112, "timestamp": "2025-12-14T07:33:19.149744+00:00", "meta": {"OBJECT_NAME": "EUTELSAT 7B", "OBJECT_ID": "2013-022A", "EPOCH": "2025-12-13T15:11:40.735104", "MEAN_MOTION": 1.00273402, "ECCENTRICITY": 0.00046497, "INCLINATION": 0.0747, "RA_OF_ASC_NODE": 22.8129, "ARG_OF_PERICENTER": 295.6945, "MEAN_ANOMALY": 358.9761, "EPHEMERIS_TYPE": 0, "CLASSIFICATION_TYPE": "U", "NORAD_CAT_ID": 39163, "ELEMENT_SET_NO": 999, "REV_AT_EPOCH": 4609, "BSTAR": 0, "MEAN_MOTION_DOT": 6.4e-07, "MEAN_MOTION_DDOT": 0}, "tle": {"line1": "1 39163U 13022A   25347.63311036  .00000064  00000+0  00000+0 0  9992", "line2": "2 39163   0.0747  22.8129 0004649 295.6945 358.9761  1.00273402 46096"}}, "geometry": {"type": "Point", "coordinates": [-156.48757641526254, -0.014838439324708292]}}, {"type": "Feature", "properties": {"norad_id": 39612, "name": "EXPRESS-AT1", "group": "eutelsat", "lat": -0.03485164482690956, "lon": -107.46013831184578, "alt_km": 35786.32968225891, "timestamp": "2025-12-14T07:33:19.149762+00:00", "meta": {"OBJECT_NAME": "EXPRESS-AT1", "OBJECT_ID": "2014-010A", "EPOCH": "2025-12-13T10:17:31.405344", "MEAN_MOTION": 1.00270351, "ECCENTRICITY": 2.91e-06, "INCLINATION": 0.0163, "RA_OF_ASC_NODE": 325.8059, "ARG_OF_PERICENTER": 236.4192, "MEAN_ANOMALY": 90.5055, "EPHEMERIS_TYPE": 0, "CLASSIFICATION_TYPE": "U", "NORAD_CAT_ID": 39612, "ELEMENT_SET_NO": 999, "REV_AT_EPOCH": 4295, "BSTAR": 0, "MEAN_MOTION_DOT": 0, "MEAN_MOTION_DDOT": 0}, "tle": {"line1": "1 39612U 14010A   25347.42883571  .00000000  00000+0  00000+0 0  9994", "line2": "2 39612   0.0163 325.8059 0000029 236.4192  90.5055  1.00270351 42956"}}, "geometry": {"type": "Point", "coordinates": [-107.46013831184578, -0.03485164482690956]}}, {"type": "Feature", "properties": {"norad_id": 39613, "name": "EXPRESS-AT2", "group": "eutelsat", "lat": 0.00936294124055796, "lon": -23.583652397953042, "alt_km": 35781.9733091755, "timestamp": "2025-12-14T07:33:19.149788+00:00", "meta": {"OBJECT_NAME": "EXPRESS-AT2", "OBJECT_ID": "2014-010B", "EPOCH": "2025-12-13T15:49:37.101216", "MEAN_MOTION": 1.00270384, "ECCENTRICITY": 0.00014413, "INCLINATION": 0.019, "RA_OF_ASC_NODE": 316.3324, "ARG_OF_PERICENTER": 339.0793, "MEAN_ANOMALY": 164.4354, "EPHEMERIS_TYPE": 0, "CLASSIFICATION_TYPE": "U", "NORAD_CAT_ID": 39613, "ELEMENT_SET_NO": 999, "REV_AT_EPOCH": 4264, "BSTAR": 0, "MEAN_MOTION_DOT": -2.66e-06, "MEAN_MOTION_DDOT": 0}, "tle": {"line1": "1 39613U 14010B   25347.65945719 -.00000266  00000+0  00000+0 0  9998", "line2": "2 39613   0.0190 316.3324 0001441 339.0793 164.4354  1.00270384 42648"}}, "geometry": {"type": "Point", "coordinates": [-23.583652397953042, 0.00936294124055796]}}, {"type": "Feature", "properties": {"norad_id": 39773, "name": "EUTELSAT 3B", "group": "eutelsat", "lat": -0.04300051741714608, "lon": -160.38012033264636, "alt_km": 35769.91373916461, "timestamp": "2025-12-14T07:33:19.149812+00:00", "meta": {"OBJECT_NAME": "EUTELSAT 3B", "OBJECT_ID": "2014-030A", "EPOCH": "2025-12-13T15:10:33.342240", "MEAN_MOTION": 1.00270909, "ECCENTRICITY": 0.00045163, "INCLINATION": 0.0608, "RA_OF_ASC_NODE": 351.0873, "ARG_OF_PERICENTER": 239.2444, "MEAN_ANOMALY": 82.9625, "EPHEMERIS_TYPE": 0, "CLASSIFICATION_TYPE": "U", "NORAD_CAT_ID": 39773, "ELEMENT_SET_NO": 999, "REV_AT_EPOCH": 4220, "BSTAR": 0, "MEAN_MOTION_DOT": 3.5e-07, "MEAN_MOTION_DDOT": 0}, "tle": {"line1": "1 39773U 14030A   25347.63233035  .00000035  00000+0  00000+0 0  9999", "line2": "2 39773   0.0608 351.0873 0004516 239.2444  82.9625  1.00270909 42204"}}, "geometry": {"type": "Point", "coordinates": [-160.38012033264636, -0.04300051741714608]}}, {"type": "Feature", "properties": {"norad_id": 40425, "name": "EUTELSAT 115 WEST B", "group": "eutelsat", "lat": 9.180375530938154e-05, "lon": 81.67452358368315, "alt_km": 35785.36443463271, "timestamp": "2025-12-14T07:33:19.149826+00:00", "meta": {"OBJECT_NAME": "EUTELSAT 115 WEST B", "OBJECT_ID": "2015-010B", "EPOCH": "2025-12-12T23:12:23.635008", "MEAN_MOTION": 1.00273842, "ECCENTRICITY": 7.22e-06, "INCLINATION": 0.0199, "RA_OF_ASC_NODE": 163.8927, "ARG_OF_PERICENTER": 349.5019, "MEAN_ANOMALY": 161.7193, "EPHEMERIS_TYPE": 0, "CLASSIFICATION_TYPE": "U", "NORAD_CAT_ID": 40425, "ELEMENT_SET_NO": 999, "REV_AT_EPOCH": 3952, "BSTAR": 0, "MEAN_MOTION_DOT": -1.3e-07, "MEAN_MOTION_DDOT": 0}, "tle": {"line1": "1 40425U 15010B   25346.96694022 -.00000013  00000+0  00000+0 0  9993", "line2": "2 40425   0.0199 163.8927 0000072 349.5019 161.7193  1.00273842 39526"}}, "geometry": {"type": "Point", "coordinates": [81.67452358368315, 9.180375530938154e-05]}}, {"type": "Feature", "properties": {"norad_id": 40875, "name": "EUTELSAT 8 WEST B", "group": "eutelsat", "lat": -0.008293591946915495, "lon": -171.47754324732742, "alt_km": 35781.398980681246, "timestamp": "2025-12-14T07:33:19.149839+00:00", "meta": {"OBJECT_NAME": "EUTELSAT 8 WEST B", "OBJECT_ID": "2015-039B", "EPOCH": "2025-12-13T15:07:26.141088", "MEAN_MOTION": 1.00271705, "ECCENTRICITY": 0.00042376, "INCLINATION": 0.0661, "RA_OF_ASC_NODE": 10.0371, "ARG_OF_PERICENTER": 253.3636, "MEAN_ANOMALY": 38.0323, "EPHEMERIS_TYPE": 0, "CLASSIFICATION_TYPE": "U", "NORAD_CAT_ID": 40875, "ELEMENT_SET_NO": 999, "REV_AT_EPOCH": 3779, "BSTAR": 0, "MEAN_MOTION_DOT": -5e-07, "MEAN_MOTION_DDOT": 0}, "tle": {"line1": "1 40875U 15039B   25347.63016367 -.00000050  00000+0  00000+0 0  9999", "line2": "2 40875   0.0661  10.0371 0004237 253.3636  38.0323  1.00271705 37793"}}, "geometry": {"type": "Point", "coordinates": [-171.47754324732742, -0.008293591946915495]}}, {"type": "Feature", "properties": {"norad_id": 41310, "name": "EUTELSAT 9B", "group": "eutelsat", "lat": 0.013206652953087265, "lon": -154.49791666921874, "alt_km": 35778.26553273258, "timestamp": "2025-12-14T07:33:19.149852+00:00", "meta": {"OBJECT_NAME": "EUTELSAT 9B", "OBJECT_ID": "2016-005A", "EPOCH": "2025-12-13T15:12:18.174816", "MEAN_MOTION": 1.00270425, "ECCENTRICITY": 0.00046175, "INCLINATION": 0.0471, "RA_OF_ASC_NODE": 65.8451, "ARG_OF_PERICENTER": 205.1638, "MEAN_ANOMALY": 48.628, "EPHEMERIS_TYPE": 0, "CLASSIFICATION_TYPE": "U", "NORAD_CAT_ID": 41310, "ELEMENT_SET_NO": 999, "REV_AT_EPOCH": 3625, "BSTAR": 0, "MEAN_MOTION_DOT": 7.7e-07, "MEAN_MOTION_DDOT": 0}, "tle": {"line1": "1 41310U 16005A   25347.63354369  .00000077  00000+0  00000+0 0  9993", "line2": "2 41310   0.0471  65.8451 0004617 205.1638  48.6280  1.00270425 36250"}}, "geometry": {"type": "Point", "coordinates": [-154.49791666921874, 0.013206652953087265]}}, {"type": "Feature", "properties": {"norad_id": 41382, "name": "EUTELSAT 65 WEST A", "group": "eutelsat", "lat": 0.056517369825041776, "lon": 131.33830563705132, "alt_km": 35794.09661894241, "timestamp": "2025-12-14T07:33:19.149864+00:00", "meta": {"OBJECT_NAME": "EUTELSAT 65 WEST A", "OBJECT_ID": "2016-014A", "EPOCH": "2025-12-13T13:08:22.543296", "MEAN_MOTION": 1.0027172, "ECCENTRICITY": 0.00024684, "INCLINATION": 0.0529, "RA_OF_ASC_NODE": 16.4904, "ARG_OF_PERICENTER": 254.2667, "MEAN_ANOMALY": 303.6171, "EPHEMERIS_TYPE": 0, "CLASSIFICATION_TYPE": "U", "NORAD_CAT_ID": 41382, "ELEMENT_SET_NO": 999, "REV_AT_EPOCH": 3567, "BSTAR": 0, "MEAN_MOTION_DOT": -2.61e-06, "MEAN_MOTION_DDOT": 0}, "tle": {"line1": "1 41382U 16014A   25347.54748314 -.00000261  00000+0  00000+0 0  9995", "line2": "2 41382   0.0529  16.4904 0002468 254.2667 303.6171  1.00271720 35674"}}, "geometry": {"type": "Point", "coordinates": [131.33830563705132, 0.056517369825041776]}}, {"type": "Feature", "properties": {"norad_id": 41589, "name": "EUTELSAT 117 WEST B", "group": "eutelsat", "lat": -0.008255601930886739, "lon": 79.5786097319213, "alt_km": 35784.98218237397, "timestamp": "2025-12-14T07:33:19.149877+00:00", "meta": {"OBJECT_NAME": "EUTELSAT 117 WEST B", "OBJECT_ID": "2016-038B", "EPOCH": "2025-12-12T23:11:46.195296", "MEAN_MOTION": 1.00271866, "ECCENTRICITY": 2.512e-05, "INCLINATION": 0.011, "RA_OF_ASC_NODE": 153.7448, "ARG_OF_PERICENTER": 269.9053, "MEAN_ANOMALY": 249.2194, "EPHEMERIS_TYPE": 0, "CLASSIFICATION_TYPE": "U", "NORAD_CAT_ID": 41589, "ELEMENT_SET_NO": 999, "REV_AT_EPOCH": 3479, "BSTAR": 0, "MEAN_MOTION_DOT": 1e-08, "MEAN_MOTION_DDOT": 0}, "tle": {"line1": "1 41589U 16038B   25346.96650689  .00000001  00000+0  00000+0 0  9993", "line2": "2 41589   0.0110 153.7448 0000251 269.9053 249.2194  1.00271866 34790"}}, "geometry": {"type": "Point", "coordinates": [79.5786097319213, -0.008255601930886739]}}]}